IRIDIUM 144             
1 43249U 18030A   25053.50226185 -.00000070  00000+0 -32037-4 0  9995
2 43249  86.3991 130.9666 0002116  93.5736 266.5701 14.34214358361387
IRIDIUM 149             
1 43250U 18030B   25053.50860455  .00000043  00000+0  81628-5 0  9990
2 43250  86.3990 130.9368 0002092  92.6479 267.4956 14.34217778361408
IRIDIUM 157             
1 43251U 18030C   25053.45786332  .00000223  00000+0  72491-4 0  9993
2 43251  86.3992 131.0004 0001965 102.8909 257.2507 14.34217686361373
IRIDIUM 140             
1 43252U 18030D   25053.54666080  .00000029  00000+0  34182-5 0  9991
2 43252  86.3992 130.9773 0002328  94.0607 266.0855 14.34217635361442
IRIDIUM 145             
1 43253U 18030E   25053.25489486  .00000324  00000+0  10862-3 0  9998
2 43253  86.3988 131.0717 0002203  84.3505 275.7942 14.34214592361330
IRIDIUM 146             
1 43254U 18030F   25053.44517961  .00000022  00000+0  76113-6 0  9999
2 43254  86.3992 131.0064 0002213  86.0543 274.0906 14.34217187361372
IRIDIUM 148             
1 43255U 18030G   25053.48323475 -.00000103  00000+0 -43907-4 0  9994
2 43255  86.3992 131.0261 0001966  93.6542 266.4879 14.34216826361417
IRIDIUM 142             
1 43256U 18030H   25053.45151815  .00001131  00000+0  39672-3 0  9992
2 43256  86.3988 130.9460 0002151  83.7879 276.3562 14.34216475361376
